{
  "norad_id": 68723,
  "name": "STARLINK-37273",
  "history": [
    {
      "epoch": "2026-04-23T16:51:14.715360Z",
      "apogee_km": 311.39920621640704,
      "perigee_km": 310.61269678817007,
      "latitude_deg": 4.653691724577571e-05,
      "longitude_deg": 90.61362622337614,
      "height_km": 312.0104943341127,
      "semi_major_axis_km": 6689.142951502288,
      "eccentricity": 5.879e-05,
      "inclination_deg": 53.1597,
      "raan_deg": 195.1706,
      "arg_perigee_deg": 257.931,
      "mean_anomaly_deg": 102.165,
      "mean_motion_rev_day": 15.86890814
    }
  ]
}