STARLINK-37273          
1 68723U 26081AA  26113.70225365 -.00459853  00000+0 -18393-2 0  9997
2 68723  53.1597 195.1706 0000587 257.9310 102.1650 15.86890814  1493
